STARLINK-4026           
1 52600U 22052C   22163.58334491 -.00713320  00000+0 -96521-2 0  9997
2 52600  53.2174 297.8163 0001379  52.8762  68.1148 15.59463284  1302
STARLINK-4027           
1 52601U 22052D   22163.58334491 -.00713346  00000+0 -96554-2 0  9992
2 52601  53.2174 297.8014 0001565  42.3175  77.1906 15.59453991  1303
STARLINK-4012           
1 52602U 22052E   22163.58334491 -.00713353  00000+0 -96543-2 0  9999
2 52602  53.2174 297.8090 0001379  51.9737  68.2759 15.59458653  1308
STARLINK-4016           
1 52603U 22052F   22163.58334491 -.00713124  00000+0 -96454-2 0  9997
2 52603  53.2175 297.8364 0001436  48.8671  74.8166 15.59473168  1303
STARLINK-4013           
1 52604U 22052G   22163.58334491 -.00713269  00000+0 -96495-2 0  9993
2 52604  53.2175 297.8234 0001432  49.6831  72.0492 15.59467891  1301
STARLINK-4000           
1 52605U 22052H   22163.58334491 -.00844177  00000+0 -20704-1 0  9996
2 52605  53.2175 299.1814 0001256  62.6946  27.3335 15.42547090  1308
STARLINK-3928           
1 52606U 22052J   22163.58334491 -.00713224  00000+0 -96471-2 0  9990
2 52606  53.2175 297.8305 0001445  48.9183  73.5552 15.59472507  1301
STARLINK-3947           
1 52607U 22052K   22163.58334491 -.00844073  00000+0 -20382-1 0  9995
2 52607  53.2174 299.2039 0001315  59.5933  39.0734 15.43006300  1304
STARLINK-3979           
1 52608U 22052L   22163.58334491 -.00713149  00000+0 -96457-2 0  9992
2 52608  53.2175 297.8429 0001364  54.4138  70.4800 15.59473913  1306
STARLINK-3997           
1 52609U 22052M   22163.58334491 -.00712986  00000+0 -96428-2 0  9999
2 52609  53.2175 297.8527 0001372  53.0552  74.2590 15.59475189  1305
STARLINK-3998           
1 52610U 22052N   22163.58334491 -.00844084  00000+0 -20543-1 0  9990
2 52610  53.2174 299.1925 0001292  60.2833  34.2742 15.42774398  1307
STARLINK-3980           
1 52611U 22052P   22163.58334491 -.00843793  00000+0 -20221-1 0  9990
2 52611  53.2174 299.2139 0001443  50.2771  53.0276 15.43228883  1309
STARLINK-4002           
1 52612U 22052Q   22163.58334491 -.00712886  00000+0 -96428-2 0  9992
2 52612  53.2175 297.8480 0001457  48.6154  77.9574 15.59470543  1300
STARLINK-3921           
1 52613U 22052R   22163.58334491 -.00067787  00000+0 -48165-3 0  9992
2 52613  53.2129 297.3477 0001406  50.1150 301.4472 15.73238844  1303
STARLINK-3982           
1 52614U 22052S   22163.58334491 -.00082860  00000+0 -59013-3 0  9996
2 52614  53.2132 297.3507 0001402  44.6094 306.3211 15.73264864  1309
STARLINK-4011           
1 52615U 22052T   22163.58334491 -.00843656  00000+0 -20072-1 0  9996
2 52615  53.2174 299.2226 0001315  62.3527  46.1311 15.43442392  1307
STARLINK-4015           
1 52616U 22052U   22163.58334491 -.00103339  00000+0 -73891-3 0  9993
2 52616  53.2132 297.3486 0001378  48.4254 303.7018 15.73263739  1305
STARLINK-3996           
1 52617U 22052V   22163.58334491 -.00030391  00000+0 -21279-3 0  9994
2 52617  53.2131 297.3406 0001520  53.3573 301.7783 15.73211452  1307
STARLINK-3983           
1 52618U 22052W   22163.58334491 -.00042728  00000+0 -30116-3 0  9992
2 52618  53.2132 297.3465 0001303  42.7595 309.9365 15.73231207  1305
STARLINK-3741           
1 52619U 22052X   22163.58334491 -.00061497  00000+0 -43616-3 0  9996
2 52619  53.2132 297.3391 0001336  41.0751 314.6048 15.73242275  1304
STARLINK-3975           
1 52620U 22052Y   22163.58334491 -.00843567  00000+0 -19912-1 0  9994
2 52620  53.2174 299.2340 0001338  59.9209  52.3605 15.43674268  1308
STARLINK-3984           
1 52621U 22052Z   22163.58334491 -.00067468  00000+0 -47897-3 0  9998
2 52621  53.2131 297.3353 0001342  43.8865 313.5945 15.73257374  1307
STARLINK-4008           
1 52622U 22052AA  22163.58334491 -.00832219  00000+0 -18316-1 0  9995
2 52622  53.2175 299.3570 0001358  61.8338  75.5983 15.46085193  1306
STARLINK-3986           
1 52623U 22052AB  22163.58334491 -.00082348  00000+0 -58682-3 0  9998
2 52623  53.2130 297.3323 0001342  49.9931 308.7018 15.73249284  4903
STARLINK-4009           
1 52624U 22052AC  22163.58334491 -.00078882  00000+0 -56143-3 0  9997
2 52624  53.2132 297.3383 0001286  48.6607 307.6229 15.73260624  1309
STARLINK-3988           
1 52625U 22052AD  22163.58334491 -.00029368  00000+0 -20546-3 0  9991
2 52625  53.2130 297.3309 0001343  53.0360 306.2399 15.73210963  1300
STARLINK-3990           
1 52626U 22052AE  22163.58334491 -.00013532  00000+0 -92089-4 0  9990
2 52626  53.2171 297.3345 0001779  57.5299 299.1377 15.73213611  1308
STARLINK-3992           
1 52627U 22052AF  22163.58334491 -.00069158  00000+0 -49177-3 0  9995
2 52627  53.2132 297.3273 0001441  55.3844 305.7077 15.73228705  4904
STARLINK-4001           
1 52628U 22052AG  22163.58334491 -.00832066  00000+0 -18180-1 0  9990
2 52628  53.2175 299.3641 0001401  58.8198  82.9117 15.46294042  4882
STARLINK-4022           
1 52629U 22052AH  22163.58334491 -.00065292  00000+0 -46361-3 0  9994
2 52629  53.2131 297.3262 0001232  57.0742 304.6276 15.73240044  4906
STARLINK-3989           
1 52630U 22052AJ  22163.58334491 -.00104978  00000+0 -75074-3 0  9994
2 52630  53.2132 297.3305 0001257  43.9766 315.8994 15.73267378  4904
STARLINK-3794           
1 52631U 22052AK  22163.58334491 -.00063563  00000+0 -45093-3 0  9997
2 52631  53.2132 297.3233 0001438  43.5946 319.2675 15.73249236  1311
STARLINK-3995           
1 52632U 22052AL  22163.58334491 -.00063001  00000+0 -44671-3 0  9996
2 52632  53.2132 297.3298 0001284  48.2884 312.1693 15.73258416  1306
STARLINK-3994           
1 52633U 22052AM  22163.58334491 -.00090527  00000+0 -64693-3 0  9996
2 52633  53.2130 297.3194 0001399  47.3264 317.3804 15.73221713  1300
STARLINK-3974           
1 52634U 22052AN  22163.58334491 -.00070934  00000+0 -50443-3 0  9995
2 52634  53.2133 297.3253 0001490  49.9176 312.4081 15.73237530  1309
STARLINK-3978           
1 52635U 22052AP  22163.58334491 -.00064688  00000+0 -45959-3 0  9991
2 52635  53.2132 297.3172 0001580  53.4412 312.4368 15.73221645  1300
STARLINK-3967           
1 52636U 22052AQ  22163.58334491 -.00061395  00000+0 -43544-3 0  9992
2 52636  53.2132 297.3232 0001417  49.3587 314.0706 15.73241097  1301
STARLINK-3961           
1 52637U 22052AR  22163.58334491 -.00070984  00000+0 -50491-3 0  9996
2 52637  53.2131 297.3154 0001470  54.4937 311.9519 15.73232090  1300
STARLINK-3941           
1 52638U 22052AS  22163.58334491 -.00004269  00000+0 -26001-4 0  9991
2 52638  53.2174 297.3194 0001597  62.5897 301.2361 15.73206398  1317
STARLINK-3968           
1 52639U 22052AT  22163.58334491 -.00026432  00000+0 -18394-3 0  9993
2 52639  53.2130 297.3118 0001635  55.5360 312.4870 15.73269508  1306
STARLINK-3977           
1 52640U 22052AU  22163.58334491 -.00023702  00000+0 -16483-3 0  9999
2 52640  53.2133 297.3189 0001674  49.1679 316.0922 15.73212643  1300
STARLINK-3991           
1 52641U 22052AV  22163.58334491 -.00027825  00000+0 -19435-3 0  9990
2 52641  53.2130 297.3098 0001479  60.1133 308.7305 15.73215930  1303
STARLINK-3971           
1 52642U 22052AW  22163.58334491 -.00104534  00000+0 -74787-3 0  9995
2 52642  53.2133 297.3147 0001248  47.6013 319.4701 15.73256194  1309
STARLINK-3963           
1 52643U 22052AX  22163.58334491 -.00041709  00000+0 -29368-3 0  9995
2 52643  53.2150 297.3065 0001367  47.6751 322.9196 15.73243399  1309
STARLINK-3985           
1 52644U 22052AY  22163.58334491 -.00004555  00000+0 -28041-4 0  9992
2 52644  53.2174 297.3119 0001662  44.8332 322.5692 15.73206530  1301
STARLINK-3973           
1 52645U 22052AZ  22163.58334491 -.00118401  00000+0 -84877-3 0  9997
2 52645  53.2148 297.3045 0001385  46.8907 324.3282 15.73263689  1306
STARLINK-3832           
1 52646U 22052BA  22163.58334491 -.00082719  00000+0 -58990-3 0  9997
2 52646  53.2132 297.3093 0001360  54.7506 314.7088 15.73233912  1302
STARLINK-3846           
1 52647U 22052BB  22163.58334491 -.00061048  00000+0 -43298-3 0  9995
2 52647  53.2131 297.3020 0001273  43.2256 329.1572 15.73239076  1305
STARLINK-3854           
1 52648U 22052BC  22163.58334491 -.00049013  00000+0 -34625-3 0  9998
2 52648  53.2134 297.3086 0001156  49.6828 320.3126 15.73239747  1309
STARLINK-3868           
1 52649U 22052BD  22163.58334491 -.00090280  00000+0 -64402-3 0  9997
2 52649  53.2147 297.3033 0001536  36.7452 335.0780 15.73261512  1302
STARLINK-3891           
1 52650U 22052BE  22163.58334491 -.00080876  00000+0 -57623-3 0  9996
2 52650  53.2133 297.3021 0001418  43.5878 329.4333 15.73245752  1302
FALCON 9 DEB            
1 52651U 22052BF  22163.53166424  .00255223  38064-4  50588-3 0  9998
2 52651  53.2070 293.9950 0017124 343.2635  16.7829 15.99214368  4573
FALCON 9 DEB            
1 52652U 22052BG  22163.51773683  .00203070  28497-4  37373-3 0  9997
2 52652  53.2059 293.9011 0017657 346.9589  13.0984 16.00540548  4575
FALCON 9 DEB            
1 52653U 22052BH  22163.55157391  .00402740  84145-4  61534-3 0  9997
2 52653  53.2044 293.3933 0014887 339.3412  20.7017 16.03640957  4581
FALCON 9 DEB            
1 52654U 22052BJ  22163.53917889  .00452217  10634-3  62877-3 0  9998
2 52654  53.2095 293.3187 0013909 343.2555  16.8017 16.05203603  4586
STARLINK-4004           
1 52656U 22053A   22163.58334491 -.00716680  00000+0 -91970-2 0  9994
2 52656  53.2172 173.7043 0001176  62.3561 258.2488 15.60850767  1305
STARLINK-4084           
1 52657U 22053B   22163.58334491 -.00716724  00000+0 -92026-2 0  9997
2 52657  53.2171 173.6921 0001145  65.7063 252.7182 15.60837015  1300
STARLINK-4082           
1 52658U 22053C   22163.58334491 -.00716684  00000+0 -91988-2 0  9999
2 52658  53.2172 173.6976 0001141  64.7936 255.0847 15.60846129  1306
STARLINK-3960           
1 52659U 22053D   22163.58334491 -.00716689  00000+0 -92005-2 0  9996
2 52659  53.2172 173.6966 0001135  67.1254 252.0260 15.60841603  1307
